        "tle_line2": '2 40878 100.1375 138.6625 0009152 130.1771 230.0152 13.15977460318574',
        "epoch_iso": '2022-04-14T03:28:51.699648Z',
        "inclination_deg": '100.137500',
        "eccentricity": '0.00091520',
        "mean_motion_rev_per_day": '13.15977460',
        "altitude_m": '1200123.690',
    },
    {
        "name": 'GAOFEN 9',
        "norad_catalog_id": '40894',
        "tle_line1": '1 40894U 15047A   22104.07564867  .00000751  00000-0  11458-3 0  9999',
        "tle_line2": '2 40894  97.8209 176.4481 0033881  59.5078 300.9457 14.76266872354683',
        "epoch_iso": '2022-04-14T01:48:56.045088Z',
        "inclination_deg": '97.820900',
        "eccentricity": '0.00338810',
        "mean_motion_rev_per_day": '14.76266872',
        "altitude_m": '641132.630',
    },
    {
        "name": 'YAOGAN 28',
        "norad_catalog_id": '41026',
        "tle_line1": '1 41026U 15064A   22103.88951859 -.00008730  00000-0 -36575-3 0  9999',
        "tle_line2": '2 41026  97.5417 246.2355 0003222 157.6464 318.4712 15.23291028358406',
        "epoch_iso": '2022-04-13T21:20:54.406176Z',
        "inclination_deg": '97.541700',
        "eccentricity": '0.00032220',
        "mean_motion_rev_per_day": '15.23291028',
        "altitude_m": '495921.945',
    },
    {
        "name": 'YAOGAN 29',
        "norad_catalog_id": '41038',
        "tle_line1": '1 41038U 15069A   22104.01969047  .00000458  00000-0  66652-4 0  9998',
        "tle_line2": '2 41038  98.0564 103.9157 0000660  90.0531 270.0760 14.80621836344750',
        "epoch_iso": '2022-04-14T00:28:21.256608Z',
        "inclination_deg": '98.056400',
        "eccentricity": '0.00006600',
        "mean_motion_rev_per_day": '14.80621836',
        "altitude_m": '627361.988',
    },
    {
        "name": 'KENT RIDGE 1',
        "norad_catalog_id": '41167',
        "tle_line1": '1 41167U 15077B   22103.93553772  .00002817  00000-0  12929-3 0  9992',
        "tle_line2": '2 41167  14.9832 319.1003 0010891 204.6363 190.8337 15.09826845349485',
        "epoch_iso": '2022-04-13T22:27:10.459008Z',
        "inclination_deg": '14.983200',
        "eccentricity": '0.00108910',
        "mean_motion_rev_per_day": '15.09826845',
        "altitude_m": '536728.642',
    },
    {
        "name": 'GAOFEN-4',
        "norad_catalog_id": '41194',
        "tle_line1": '1 41194U 15083A   22103.80193971 -.00000334  00000-0  00000-0 0  9993',
        "tle_line2": '2 41194   0.0560  56.2403 0005686 120.3706  59.7381  1.00273515 23222',
        "epoch_iso": '2022-04-13T19:14:47.590944Z',
        "inclination_deg": '0.056000',
        "eccentricity": '0.00056860',
        "mean_motion_rev_per_day": '1.00273515',
        "altitude_m": '35786109.986',
    },
    {
        "name": 'JASON 3',
        "norad_catalog_id": '41240',
        "tle_line1": '1 41240U 16002A   22105.84663400 -.00000065  00000-0 -23592-4 0  9999',
        "tle_line2": '2 41240  66.0422  59.0440 0008352 273.0059  86.9998 12.75995092292033',
        "epoch_iso": '2022-04-15T20:19:09.177600Z',
        "inclination_deg": '66.042200',
        "eccentricity": '0.00083520',
        "mean_motion_rev_per_day": '12.75995092',
        "altitude_m": '1357614.414',
    },
    {
        "name": 'SENTINEL 3A',
        "norad_catalog_id": '41335',
        "tle_line1": '1 41335U 16011A   22104.17228709  .00000084  00000-0  52875-4 0  9993',
        "tle_line2": '2 41335  98.6273 172.4028 0001163 100.4476 259.6836 14.26731485320601',
        "epoch_iso": '2022-04-14T04:08:05.604576Z',
        "inclination_deg": '98.627300',
        "eccentricity": '0.00011630',
        "mean_motion_rev_per_day": '14.26731485',
        "altitude_m": '802677.002',
    },
    {
        "name": 'ZY 3 2',
        "norad_catalog_id": '41556',
        "tle_line1": '1 41556U 16033A   22104.24842983 -.00097321  00000-0 -44478-2 0  9996',
        "tle_line2": '2 41556  97.4064 172.8257 0010216 274.4567 107.0814 15.20945257326147',
        "epoch_iso": '2022-04-14T05:57:44.337312Z',
        "inclination_deg": '97.406400',
        "eccentricity": '0.00102160',
        "mean_motion_rev_per_day": '15.20945257',
        "altitude_m": '502988.088',
    },
    {
        "name": 'CARTOSAT 2C',
        "norad_catalog_id": '41599',
        "tle_line1": '1 41599U 16040A   22103.94370125  .00004078  00000-0  19651-3 0  9992',
        "tle_line2": '2 41599  97.4938 164.0841 0014192  52.0651 121.0946 15.19212834322130',
        "epoch_iso": '2022-04-13T22:38:55.788000Z',
        "inclination_deg": '97.493800',
        "eccentricity": '0.00141920',
        "mean_motion_rev_per_day": '15.19212834',
        "altitude_m": '508218.321',
    },
    {
        "name": 'SKYSAT C1',
        "norad_catalog_id": '41601',
        "tle_line1": '1 41601U 16040C   22103.81840582  .00010830  00000-0  27845-3 0  9998',
        "tle_line2": '2 41601  97.1586 180.7851 0000390  17.7919 342.3341 15.39438250324061',
        "epoch_iso": '2022-04-13T19:38:30.262848Z',
        "inclination_deg": '97.158600',
        "eccentricity": '0.00003900',
        "mean_motion_rev_per_day": '15.39438250',
        "altitude_m": '447769.355',
    },
    {
        "name": 'LAPAN A3',
        "norad_catalog_id": '41603',
        "tle_line1": '1 41603U 16040E   22103.89407425  .00001789  00000-0  84757-4 0  9992',
        "tle_line2": '2 41603  97.2144 143.7137 0014202  34.2061 138.9425 15.20462995322220',
        "epoch_iso": '2022-04-13T21:27:28.015200Z',
        "inclination_deg": '97.214400',
        "eccentricity": '0.00142020',
        "mean_motion_rev_per_day": '15.20462995',
        "altitude_m": '504443.053',
    },
    {
        "name": 'GAOFEN-3',
        "norad_catalog_id": '41727',
        "tle_line1": '1 41727U 16049A   22103.80790136 -.00000432  00000-0 -11794-3 0  9999',
        "tle_line2": '2 41727  98.4101 113.0300 0001820 113.4257 246.7132 14.42213780298778',
        "epoch_iso": '2022-04-13T19:23:22.677504Z',
        "inclination_deg": '98.410100',
        "eccentricity": '0.00018200',
        "mean_motion_rev_per_day": '14.42213780',
        "altitude_m": '751193.489',
    },
    {
        "name": 'SKYSAT C4',
        "norad_catalog_id": '41771',
        "tle_line1": '1 41771U 16058B   22104.13588012  .00010115  00000-0  23714-3 0  9995',
        "tle_line2": '2 41771  97.1260 171.2246 0001689 109.3277 250.8153 15.42261002311061',
        "epoch_iso": '2022-04-14T03:15:40.042368Z',
        "inclination_deg": '97.126000',
        "eccentricity": '0.00016890',
        "mean_motion_rev_per_day": '15.42261002',
        "altitude_m": '439437.984',
    },
    {
        "name": 'SKYSAT C5',
        "norad_catalog_id": '41772',
        "tle_line1": '1 41772U 16058C   22103.80126814  .00004787  00000-0  18942-3 0  9992',
        "tle_line2": '2 41772  97.2722 169.1077 0001966  94.2126 265.9337 15.25912330309917',
        "epoch_iso": '2022-04-13T19:13:49.567296Z',
        "inclination_deg": '97.272200',
        "eccentricity": '0.00019660',
        "mean_motion_rev_per_day": '15.25912330',
        "altitude_m": '488047.247',
    },
    {
        "name": 'SKYSAT C2',
        "norad_catalog_id": '41773',
        "tle_line1": '1 41773U 16058D   22103.70440970  .00011348  00000-0  26551-3 0  9990',
        "tle_line2": '2 41773  97.1271 171.2218 0002035 102.4108 257.7368 15.42290116311025',
        "epoch_iso": '2022-04-13T16:54:20.998080Z',
        "inclination_deg": '97.127100',
        "eccentricity": '0.00020350',
        "mean_motion_rev_per_day": '15.42290116',
        "altitude_m": '439352.186',
    },
    {
        "name": 'SKYSAT C3',
        "norad_catalog_id": '41774',
        "tle_line1": '1 41774U 16058E   22103.78929625  .00012642  00000-0  29299-3 0  9998',
        "tle_line2": '2 41774  97.1263 171.2154 0001701 108.0015 252.1419 15.42549236311020',
        "epoch_iso": '2022-04-13T18:56:35.196000Z',
        "inclination_deg": '97.126300',
        "eccentricity": '0.00017010',
        "mean_motion_rev_per_day": '15.42549236',
        "altitude_m": '438588.690',
    },
    {
        "name": 'ALSAT 1B',
        "norad_catalog_id": '41785',
        "tle_line1": '1 41785U 16059C   22103.83258162 -.00000048  00000-0  00000+0 0  9991',
        "tle_line2": '2 41785  97.9172 150.0274 0011173  77.5884 282.6586 14.70005768296320',
        "epoch_iso": '2022-04-13T19:58:55.051968Z',
        "inclination_deg": '97.917200',
        "eccentricity": '0.00111730',
        "mean_motion_rev_per_day": '14.70005768',
        "altitude_m": '661049.667',
    },
    {
        "name": 'PATHFINDER 1',
        "norad_catalog_id": '41787',
        "tle_line1": '1 41787U 16059E   22104.10508288  .00000572  00000-0  11735-3 0  9993',
        "tle_line2": '2 41787  97.9196 150.4345 0030941  12.6449 347.5522 14.63957183296322',
        "epoch_iso": '2022-04-14T02:31:19.160832Z',
        "inclination_deg": '97.919600',
        "eccentricity": '0.00309410',
        "mean_motion_rev_per_day": '14.63957183',
        "altitude_m": '680425.395',
    },
    {
        "name": 'SCATSAT 1',
        "norad_catalog_id": '41790',
        "tle_line1": '1 41790U 16059H   22103.85266324  .00000181  00000-0  57199-4 0  9991',
        "tle_line2": '2 41790  98.3279 148.4730 0006166  51.7676 308.4073 14.50859567293705',
        "epoch_iso": '2022-04-13T20:27:50.103936Z',
        "inclination_deg": '98.327900',
        "eccentricity": '0.00061660',
        "mean_motion_rev_per_day": '14.50859567',
        "altitude_m": '722842.455',
    },
    {
        "name": 'GOKTURK-1A',
        "norad_catalog_id": '41875',
        "tle_line1": '1 41875U 16073A   22103.90744782  .00000402  00000-0  88005-4 0  9992',
        "tle_line2": '2 41875  98.1392 359.7361 0001418  80.4537 279.6821 14.62784935285845',
        "epoch_iso": '2022-04-13T21:46:43.491648Z',
        "inclination_deg": '98.139200',
        "eccentricity": '0.00014180',
        "mean_motion_rev_per_day": '14.62784935',
        "altitude_m": '684195.956',
    },
    {
